[{"OBJECT_NAME":"STARLINK-32042","OBJECT_ID":"2024-117T","EPOCH":"2026-03-09T22:01:21.669024","MEAN_MOTION":15.30190042,"ECCENTRICITY":0.00011199,"INCLINATION":53.1613,"RA_OF_ASC_NODE":35.8956,"ARG_OF_PERICENTER":73.8704,"MEAN_ANOMALY":286.242,"EPHEMERIS_TYPE":0,"CLASSIFICATION_TYPE":"U","NORAD_CAT_ID":60108,"ELEMENT_SET_NO":999,"REV_AT_EPOCH":9692,"BSTAR":-1.2972571e-5,"MEAN_MOTION_DOT":-7.43e-6,"MEAN_MOTION_DDOT":0},{"OBJECT_NAME":"USA 120","OBJECT_ID":"1996-029B","EPOCH":"2026-03-09T10:42:29.277216","MEAN_MOTION":13.46042729,"ECCENTRICITY":0.08443543,"INCLINATION":63.3197,"RA_OF_ASC_NODE":93.7012,"ARG_OF_PERICENTER":48.2921,"MEAN_ANOMALY":318.7269,"EPHEMERIS_TYPE":0,"CLASSIFICATION_TYPE":"U","NORAD_CAT_ID":23907,"ELEMENT_SET_NO":999,"REV_AT_EPOCH":9022,"BSTAR":0.00029745642,"MEAN_MOTION_DOT":1.67e-5,"MEAN_MOTION_DDOT":0}]
